LYNK TOWER 5            
1 59121U 24043Z   26068.92489786  .00009048  00000+0  31902-3 0  9994
2 59121  97.5458 204.7305 0010406 234.6422 125.3846 15.29454506111860
STARLINK-31515          
1 59476U 24068X   26068.30148034 -.00000652  00000+0 -14158-4 0  9993
2 59476  43.0066  36.6784 0001198 237.9446 122.1289 15.27574601108462
